STARLINK-5644           
1 55369U 23013AQ  26068.04864736 -.00000116  00000+0  64708-5 0  9995
2 55369  43.0029 316.7490 0001403 267.6266  92.4415 15.02537816171463
SEDNA-1                 
1 60580U 24149DS  26068.76583836  .00008721  00000+0  60834-3 0  9998
2 60580  97.6673 149.7617 0008344 330.8481  29.2278 15.05597965 85421
